[Satellite]
VERSION=1.1
NAME=ECHOSTAR 17
NICKNAME=ECHOSTAR 17
TLE1=1 38551U 12035A   15054.44609037 -.00000101  00000-0  00000+0 0  9993
TLE2=2 38551   0.0094  71.2137 0002445 254.5958 240.6520  1.00272304  9693
